QIANFAN-49              
1 62250U 24232P   25336.10088448  .00000145  00000+0  20687-3 0  9995
2 62250  89.0037  42.3084 0013318 218.5828 141.4372 13.50975749 66403
QIANFAN-50              
1 62251U 24232Q   25335.82930395  .00000130  00000+0  18217-3 0  9991
2 62251  89.0043  42.3431 0014898 221.6657 138.3360 13.50977128 66399
QIANFAN-51              
1 62252U 24232R   25335.81285902  .00000136  00000+0  19227-3 0  9996
2 62252  89.0037  42.3395 0012285 224.3772 135.6396 13.50975307 66383
QIANFAN-52              
1 62253U 24232S   25335.84164669  .00000058  00000+0  71022-4 0  9991
2 62253  89.0033  42.2105 0014520 217.1133 142.9015 13.50973489 66471
QIANFAN-53              
1 62254U 24232T   25335.74701550  .00000130  00000+0  18316-3 0  9994
2 62254  89.0040  42.3238 0013361 218.0047 142.0162 13.50975810 66423
QIANFAN-54              
1 62255U 24232U   25335.78819968  .00000131  00000+0  18521-3 0  9991
2 62255  89.0032  41.9991 0000664 197.2280 162.8849 13.50976012 97932
QIANFAN-55              
1 62785U 25016A   25335.81437860  .00000109  00000+0  14939-3 0  9995
2 62785  88.9774 104.3363 0017582  25.4390 334.7623 13.50983546 45718
QIANFAN-56              
1 62786U 25016B   25335.83071848  .00000126  00000+0  17694-3 0  9998
2 62786  88.9747 104.1740 0016304  28.1791 332.0239 13.50974679 45768
